STARLINK-1286
1 15417C 20019BK  21326.16856175 -.00000767  00000-0 -51410-4 0  3267
2 15417  53.0552   7.9976 0001341  67.0490  24.9303 15.06394116    14
